EUTELSAT HOTBIRD 13F    
1 54048U 22134A   26189.16919749  .00000102  00000+0  00000+0 0  9996
2 54048   0.0537 285.9502 0001923  72.0985   1.9977  1.00271803 13587
LDPE-2                  
1 54219U 22144A   26188.85299601  .00000078  00000+0  00000+0 0  9992
2 54219   5.6597  63.4768 0002398 106.6764 285.0222  1.00541490 12054
EUTELSAT HOTBIRD 13G    
1 54225U 22146A   26189.00305199  .00000102  00000+0  00000+0 0  9997
2 54225   0.0519 220.2341 0002152 320.3952 119.4347  1.00271088  7679
ZHONGXING-19            
1 54230U 22148A   26189.17540772 -.00000067  00000+0  00000+0 0  9992
2 54230   0.0361 261.0709 0002990 233.4164  17.9894  1.00270699 13594
GALAXY 31 (G-31)        
1 54243U 22153A   26189.04785888  .00000000  00000+0  00000+0 0  9993
2 54243   0.0129  15.7307 0001146  96.9563  69.5508  1.00271653  7347
GALAXY 32 (G-32)        
1 54244U 22153B   26189.05379131 -.00000159  00000+0  00000+0 0  9991
2 54244   0.0092  34.7114 0001541  14.1883 165.4788  1.00270511 13356
EUTELSAT 10B            
1 54259U 22157A   26188.85994943  .00000082  00000+0  00000+0 0  9996
2 54259   0.0593  95.1758 0002423  36.7151 113.5109  1.00264139 13238
GALAXY 35 (G-35)        
1 54741U 22170A   26189.17950786 -.00000147  00000+0  00000+0 0  9993
2 54741   0.0225 269.2852 0002055 202.4627 145.9102  1.00270191 13109
GALAXY 36 (G-36)        
1 54742U 22170B   26189.12547411 -.00000170  00000+0  00000+0 0  9992
2 54742   0.0254 132.3820 0002605 326.1502 143.7197  1.00270712 12988
METEOSAT-12 (MTG-I1)    
1 54743U 22170C   26189.17475236  .00000007  00000+0  00000+0 0  9991
2 54743   0.7175  18.3979 0003944  82.7187 247.7150  1.00266660 13181
SHIJIAN-23 (SJ-23)      
1 55131U 23002A   26188.66945329 -.00000321  00000+0  00000+0 0  9996
2 55131   3.7667  78.0587 0003418 273.2883 309.6301  1.00080623 12713
APSTAR-6E               
1 55239U 23005A   26189.16951435 -.00000302  00000+0  00000+0 0  9998
2 55239   0.0449 234.2328 0001620 332.3153 274.6151  1.00272542 18903
USA 342                 
1 55263U 23008A   26188.50607425  .00000000  00000+0  00000+0 0  9996
2 55263   0.0041 358.8692 0000194   5.7709 126.9344  1.00266819 12725
LDPE-3A                 
1 55264U 23008B   26188.81977971 -.00000209  00000+0  00000+0 0  9999
2 55264   2.3983  81.4145 0001535  72.4118 234.6157  0.99151540 12015
ELEKTRO-L 4             
1 55506U 23016A   26188.74588008 -.00000043  00000+0  00000+0 0  9994
2 55506   0.1010 133.3683 0001180  45.1610 181.4734  1.00272111 12533
AMAZONAS NEXUS          
1 55508U 23017A   26188.06170248 -.00000267  00000+0  00000+0 0  9993
2 55508   0.0334  38.5553 0004676  43.0358 164.6663  1.00270134  7243
ZHONGXING-26            
1 55686U 23023A   26188.81137301 -.00000338  00000+0  00000+0 0  9992
2 55686   0.0585  70.6000 0003143  32.7902 239.5888  1.00270109 12430
LUCH-5X (OLYMP-K 2)     
1 55841U 23031A   26188.72762976  .00000048  00000+0  00000+0 0  9993
2 55841   0.0343  91.5213 0000977 143.5328  14.5463  1.00272713 12149
GAOFEN-13 02            
1 55912U 23036A   26188.17439238 -.00000206  00000+0  00000+0 0  9995
2 55912   1.0245   3.5052 0003473 330.6974 161.8188  1.00266123 12298
SES-18                  
1 55970U 23038A   26189.12153001 -.00000086  00000+0  00000+0 0  9994
2 55970   0.0542 265.3151 0000521 296.6613  24.7608  1.00271732 12310
SES-19                  
1 55971U 23038B   26189.12721925  .00000103  00000+0  00000+0 0  9990
2 55971   0.0335 289.7559 0001729 186.4764  80.7498  1.00271664 12309
INTELSAT 40E (IS-40E)   
1 56174U 23052A   26189.12504078  .00000000  00000+0  00000+0 0  9996
2 56174   0.0201  51.3332 0002324  94.0266  94.7321  1.00268923 12036
VIASAT-3 F1             
1 56370U 23060A   26188.62646118  .00000000  00000+0  00000+0 0  9999
2 56370   0.0180  14.5636 0000903  94.2168 313.3743  1.00269838 11631
ARCTURUS                
1 56371U 23060B   26189.08981557 -.00000278  00000+0  00000+0 0  9998
2 56371   2.8271  79.6811 0000637 139.6818 189.7333  1.00597341 11666
GS-1                    
1 56372U 23060C   26188.80435296 -.00000210  00000+0  00000+0 0  9998
2 56372   2.7774  79.5896 0003527 281.0763 304.0662  1.00268828  7744
BEIDOU-3 G4             
1 56564U 23066A   26187.31732966 -.00000268  00000+0  00000+0 0  9999
2 56564   0.4680 336.2679 0005056 178.9368  23.3032  1.00266978 11587
ARABSAT-7B (BADR-8)     
1 56757U 23075A   26189.14819426  .00000159  00000+0  00000+0 0  9991
2 56757   0.0729  28.0468 0003864   1.3193 336.0914  1.00268279 11324
NVS-01 (IRNSS-1J)       
1 56759U 23076A   26189.02619212 -.00000319  00000+0  00000+0 0  9991
2 56759   2.1197 243.4223 0003307   7.4004 174.1398  1.00268489 11320
NUSANTARA TIGA (SATRIA) 
1 57045U 23086A   26188.88685801 -.00000219  00000+0  00000+0 0  9990
2 57045   0.0339   5.4021 0003037 338.6139  47.1074  1.00271807  9969
H2SAT (HEINRICH HERTZ)  
1 57213U 23093A   26189.17475236  .00000017  00000+0  00000+0 0  9992
2 57213   0.0142 102.2416 0000733  20.9650 226.5486  1.00269534 11126
SYRACUSE 4B             
1 57214U 23093B   26189.17475236  .00000000  00000+0  00000+0 0  9995
2 57214   0.0226  33.8650 0000430 202.1678 106.5495  1.00270260  7172
JUPITER 3 (ECHOSTAR 24) 
1 57479U 23108A   26187.47440089  .00000000  00000+0  00000+0 0  9994
2 57479   0.0228  35.0419 0001267  66.6633 258.3090  1.00270196 10839
