OBJECT_NAME,OBJECT_ID,EPOCH,MEAN_MOTION,ECCENTRICITY,INCLINATION,RA_OF_ASC_NODE,ARG_OF_PERICENTER,MEAN_ANOMALY,EPHEMERIS_TYPE,CLASSIFICATION_TYPE,NORAD_CAT_ID,ELEMENT_SET_NO,REV_AT_EPOCH,BSTAR,MEAN_MOTION_DOT,MEAN_MOTION_DDOT
EUTELSAT HOTBIRD 13F,2022-134A,2026-07-08T04:03:38.663136,1.00271803,.0001923,0.0537,285.9502,72.0985,1.9977,0,U,54048,999,1358,0,.102E-5,0
LDPE-2,2022-144A,2026-07-07T20:28:18.855264,1.00541490,.0002398,5.6597,63.4768,106.6764,285.0222,0,U,54219,999,1205,0,.78E-6,0
EUTELSAT HOTBIRD 13G,2022-146A,2026-07-08T00:04:23.691936,1.00271088,.0002152,0.0519,220.2341,320.3952,119.4347,0,U,54225,999,767,0,.102E-5,0
ZHONGXING-19,2022-148A,2026-07-08T04:12:35.227008,1.00270699,.000299,0.0361,261.0709,233.4164,17.9894,0,U,54230,999,1359,0,-.67E-6,0
GALAXY 31 (G-31),2022-153A,2026-07-08T01:08:55.007232,1.00271653,.0001146,0.0129,15.7307,96.9563,69.5508,0,U,54243,999,734,0,0,0
GALAXY 32 (G-32),2022-153B,2026-07-08T01:17:27.569184,1.00270511,.0001541,0.0092,34.7114,14.1883,165.4788,0,U,54244,999,1335,0,-.159E-5,0
EUTELSAT 10B,2022-157A,2026-07-07T20:38:19.630752,1.00264139,.0002423,0.0593,95.1758,36.7151,113.5109,0,U,54259,999,1323,0,.82E-6,0
GALAXY 35 (G-35),2022-170A,2026-07-08T04:18:29.479104,1.00270191,.0002055,0.0225,269.2852,202.4627,145.9102,0,U,54741,999,1310,0,-.147E-5,0
GALAXY 36 (G-36),2022-170B,2026-07-08T03:00:40.963104,1.00270712,.0002605,0.0254,132.3820,326.1502,143.7197,0,U,54742,999,1298,0,-.17E-5,0
METEOSAT-12 (MTG-I1),2022-170C,2026-07-08T04:11:38.603904,1.00266660,.0003944,0.7175,18.3979,82.7187,247.7150,0,U,54743,999,1318,0,.7E-7,0
SHIJIAN-23 (SJ-23),2023-002A,2026-07-07T16:04:00.764256,1.00080623,.0003418,3.7667,78.0587,273.2883,309.6301,0,U,55131,999,1271,0,-.321E-5,0
APSTAR-6E,2023-005A,2026-07-08T04:04:06.039840,1.00272542,.000162,0.0449,234.2328,332.3153,274.6151,0,U,55239,999,1890,0,-.302E-5,0
USA 342,2023-008A,2026-07-07T12:08:44.815200,1.00266819,.0000194,0.0041,358.8692,5.7709,126.9344,0,U,55263,999,1272,0,0,0
LDPE-3A,2023-008B,2026-07-07T19:40:28.966944,0.99151540,.0001535,2.3983,81.4145,72.4118,234.6157,0,U,55264,999,1201,0,-.209E-5,0
ELEKTRO-L 4,2023-016A,2026-07-07T17:54:04.038912,1.00272111,.000118,0.1010,133.3683,45.1610,181.4734,0,U,55506,999,1253,0,-.43E-6,0
AMAZONAS NEXUS,2023-017A,2026-07-07T01:28:51.094272,1.00270134,.00046761,0.0334,38.5553,43.0358,164.6663,0,U,55508,999,724,0,-.267E-5,0
ZHONGXING-26,2023-023A,2026-07-07T19:28:22.628064,1.00270109,.0003143,0.0585,70.6000,32.7902,239.5888,0,U,55686,999,1243,0,-.338E-5,0
LUCH-5X (OLYMP-K 2),2023-031A,2026-07-07T17:27:47.211264,1.00272713,.0000977,0.0343,91.5213,143.5328,14.5463,0,U,55841,999,1214,0,.48E-6,0
GAOFEN-13 02,2023-036A,2026-07-07T04:11:07.501632,1.00266123,.00034737,1.0245,3.5052,330.6974,161.8188,0,U,55912,999,1229,0,-.206E-5,0
SES-18,2023-038A,2026-07-08T02:55:00.192864,1.00271732,.0000521,0.0542,265.3151,296.6613,24.7608,0,U,55970,999,1231,0,-.86E-6,0
SES-19,2023-038B,2026-07-08T03:03:11.743200,1.00271664,.0001729,0.0335,289.7559,186.4764,80.7498,0,U,55971,999,1230,0,.103E-5,0
INTELSAT 40E (IS-40E),2023-052A,2026-07-08T03:00:03.523392,1.00268923,.0002324,0.0201,51.3332,94.0266,94.7321,0,U,56174,999,1203,0,0,0
VIASAT-3 F1,2023-060A,2026-07-07T15:02:06.245952,1.00269838,.0000903,0.0180,14.5636,94.2168,313.3743,0,U,56370,999,1163,0,0,0
ARCTURUS,2023-060B,2026-07-08T02:09:20.065248,1.00597341,.0000637,2.8271,79.6811,139.6818,189.7333,0,U,56371,999,1166,0,-.278E-5,0
GS-1,2023-060C,2026-07-07T19:18:16.095744,1.00268828,.0003527,2.7774,79.5896,281.0763,304.0662,0,U,56372,999,774,0,-.21E-5,0
BEIDOU-3 G4,2023-066A,2026-07-06T07:36:57.282624,1.00266978,.00050564,0.4680,336.2679,178.9368,23.3032,0,U,56564,999,1158,0,-.268E-5,0
ARABSAT-7B (BADR-8),2023-075A,2026-07-08T03:33:23.984064,1.00268279,.0003864,0.0729,28.0468,1.3193,336.0914,0,U,56757,999,1132,0,.159E-5,0
NVS-01 (IRNSS-1J),2023-076A,2026-07-08T00:37:42.999168,1.00268489,.0003307,2.1197,243.4223,7.4004,174.1398,0,U,56759,999,1132,0,-.319E-5,0
NUSANTARA TIGA (SATRIA),2023-086A,2026-07-07T21:17:04.532064,1.00271807,.0003037,0.0339,5.4021,338.6139,47.1074,0,U,57045,999,996,0,-.219E-5,0
H2SAT (HEINRICH HERTZ),2023-093A,2026-07-08T04:11:38.603904,1.00269534,.0000733,0.0142,102.2416,20.9650,226.5486,0,U,57213,999,1112,0,.17E-6,0
SYRACUSE 4B,2023-093B,2026-07-08T04:11:38.603904,1.00270260,.000043,0.0226,33.8650,202.1678,106.5495,0,U,57214,999,717,0,0,0
JUPITER 3 (ECHOSTAR 24),2023-108A,2026-07-06T11:23:08.236896,1.00270196,.00012679,0.0228,35.0419,66.6633,258.3090,0,U,57479,999,1083,0,0,0
